ONEWEB-0169             
1 48077U 21025AM  23288.57528911 -.00000212  00000+0 -61439-3 0  9999
2 48077  87.9038 154.3559 0001896  87.3378 272.7968 13.13470797124230
ONEWEB-0176             
1 48210U 21031A   23288.57655297 -.00000229  00000+0 -65128-3 0  9990
2 48210  87.8945 123.9102 0001630  82.7380 277.3935 13.14504213120142
ONEWEB-0184             
1 48211U 21031B   23288.55118250  .00000164  00000+0  40889-3 0  9995
2 48211  87.8957 123.8982 0001890  46.1717 313.9568 13.14504420120113
ONEWEB-0179             
1 48212U 21031C   23288.59556878 -.00000049  00000+0 -16706-3 0  9997
2 48212  87.8954 123.8843 0001346  88.4907 271.6377 13.14506692120169
ONEWEB-0218             
1 48214U 21031E   23288.57444597 -.00000206  00000+0 -59065-3 0  9991
2 48214  87.8958 123.8933 0001471  37.0504 323.0727 13.14501123120207
ONEWEB-0209             
1 48215U 21031F   23288.56386105 -.00000070  00000+0 -22426-3 0  9991
2 48215  87.8949 123.9334 0001537  86.7008 273.4298 13.14501420120208
